{"type":"FeatureCollection","metadata":{"source":"NYC Department of City Planning (DCP_GIS) ArcGIS Feature Services","services":{"parcels":"https://services5.arcgis.com/GfwWNkhOj9bNBqoJ/arcgis/rest/services/MAPPLUTO/FeatureServer/0","zoning":"https://services5.arcgis.com/GfwWNkhOj9bNBqoJ/arcgis/rest/services/nyzd/FeatureServer/0"},"bbox":{"xmin":-73.9905,"ymin":40.7515,"xmax":-73.9805,"ymax":40.7595},"srid":4326,"retrieved":"2026-09-05T21:41:47.123Z","counts":{"parcels":512,"zoning":23},"note":"Bounded extract. Real data, unmodified attributes. Not a citywide dataset."},"features":[{"type":"Feature","geometry":{"type":"Polygon","coordinates":[[[-73.991651,40.755536],[-73.991176,40.755339],[-73.99208,40.754098],[-73.991922,40.754032],[-73.991449,40.753832],[-73.991672,40.753526],[-73.991514,40.753459],[-73.991737,40.753153],[-73.991974,40.753253],[-73.992199,40.752944],[-73.991457,40.752632],[-73.991232,40.75294],[-73.991469,40.75304],[-73.991246,40.753346],[-73.990898,40.7532],[-73.990675,40.753506],[-73.990377,40.753381],[-73.99015,40.753693],[-73.990261,40.753739],[-73.990034,40.754051],[-73.990379,40.754196],[-73.990154,40.754505],[-73.990091,40.754478],[-73.989866,40.754787],[-73.989221,40.754515],[-73.988996,40.754824],[-73.98947,40.755024],[-73.989245,40.755333],[-73.990126,40.755704],[-73.990351,40.755395],[-73.990478,40.755448],[-73.990703,40.755139],[-73.991018,40.755272],[-73.991176,40.755339],[-73.990728,40.755959],[-73.990501,40.756266],[-73.98972,40.755938],[-73.98969,40.755926],[-73.988471,40.755414],[-73.98845,40.755405],[-73.987664,40.755073],[-73.988788,40.753525],[-73.988778,40.753521],[-73.987312,40.752901],[-73.987339,40.752792],[-73.987492,40.752167],[-73.987646,40.751428],[-73.987709,40.751068],[-73.987779,40.750669],[-73.990136,40.751667],[-73.990362,40.751357],[-73.990841,40.751554],[-73.993209,40.75255],[-73.992976,40.752868],[-73.99345,40.753061],[-73.991651,40.755536]]]},"properties":{"zonedist":"M1-9A/R12"}},{"type":"Feature","geometry":{"type":"Polygon","coordinates":[[[-73.991545,40.75798],[-73.989791,40.757244],[-73.989528,40.757605],[-73.989062,40.757408],[-73.987477,40.75674],[-73.98725,40.757053],[-73.985348,40.756254],[-73.985349,40.75625],[-73.98535,40.756249],[-73.985457,40.755884],[-73.984644,40.755539],[-73.984637,40.755536],[-73.985154,40.754826],[-73.985156,40.754823],[-73.985721,40.755061],[-73.985836,40.754707],[-73.986643,40.755047],[-73.986756,40.754689],[-73.987664,40.755073],[-73.98845,40.755405],[-73.988001,40.756021],[-73.98927,40.756556],[-73.98972,40.755938],[-73.990501,40.756266],[-73.990728,40.755959],[-73.990728,40.755959],[-73.990733,40.755961],[-73.991225,40.756168],[-73.991535,40.756298],[-73.99309,40.756953],[-73.993106,40.75696],[-73.993569,40.757152],[-73.993118,40.757772],[-73.992035,40.757316],[-73.991545,40.75798]]]},"properties":{"zonedist":"C6-7"}},{"type":"Feature","geometry":{"type":"Polygon","coordinates":[[[-73.988001,40.756021],[-73.98845,40.755405],[-73.988471,40.755414],[-73.98969,40.755926],[-73.98972,40.755938],[-73.98927,40.756556],[-73.988001,40.756021]]]},"properties":{"zonedist":"C6-6.5"}},{"type":"Feature","geometry":{"type":"Polygon","coordinates":[[[-73.983492,40.757108],[-73.983953,40.756474],[-73.984637,40.755536],[-73.984644,40.755539],[-73.985457,40.755884],[-73.98535,40.756249],[-73.985349,40.75625],[-73.985348,40.756254],[-73.985334,40.756303],[-73.985087,40.75687],[-73.985086,40.75687],[-73.985059,40.756944],[-73.985055,40.756943],[-73.984712,40.75777],[-73.982494,40.760771],[-73.982479,40.760765],[-73.981222,40.760233],[-73.981224,40.760229],[-73.981671,40.759607],[-73.981681,40.759593],[-73.982583,40.758355],[-73.983492,40.757108]]]},"properties":{"zonedist":"C6-5.5"}},{"type":"Feature","geometry":{"type":"Polygon","coordinates":[[[-73.985156,40.754823],[-73.985832,40.753895],[-73.986067,40.753994],[-73.985836,40.754707],[-73.985721,40.755061],[-73.985156,40.754823]]]},"properties":{"zonedist":"C5-2.5"}},{"type":"Feature","geometry":{"type":"Polygon","coordinates":[[[-73.985319,40.752066],[-73.98667,40.75021],[-73.986722,40.750138],[-73.986899,40.749896],[-73.986904,40.749888],[-73.987856,40.750284],[-73.987853,40.750298],[-73.987852,40.750305],[-73.987847,40.75033],[-73.987836,40.750384],[-73.987828,40.750427],[-73.987779,40.750669],[-73.987709,40.751068],[-73.987646,40.751428],[-73.987492,40.752167],[-73.987339,40.752792],[-73.987312,40.752901],[-73.985319,40.752066],[-73.985319,40.752066]],[[-73.987628,40.750523],[-73.987681,40.750225],[-73.987501,40.75047],[-73.987628,40.750523]]]},"properties":{"zonedist":"C6-6"}},{"type":"Feature","geometry":{"type":"Polygon","coordinates":[[[-73.990136,40.751667],[-73.987779,40.750669],[-73.987828,40.750427],[-73.987836,40.750384],[-73.987847,40.75033],[-73.987852,40.750305],[-73.989897,40.751166],[-73.99016,40.750802],[-73.991099,40.751199],[-73.990841,40.751554],[-73.990362,40.751357],[-73.990136,40.751667]]]},"properties":{"zonedist":"C6-4"}},{"type":"Feature","geometry":{"type":"Polygon","coordinates":[[[-73.986086,40.759098],[-73.986108,40.759025],[-73.986813,40.759321],[-73.98704,40.759011],[-73.986869,40.75894],[-73.987097,40.758623],[-73.986703,40.758458],[-73.987162,40.757827],[-73.986798,40.757673],[-73.98725,40.757053],[-73.987477,40.75674],[-73.989062,40.757408],[-73.985648,40.762087],[-73.985638,40.762101],[-73.984833,40.76176],[-73.984837,40.761754],[-73.984875,40.761695],[-73.984875,40.761695],[-73.984891,40.76167],[-73.985043,40.761428],[-73.98519,40.761183],[-73.985274,40.76104],[-73.985296,40.761001],[-73.985415,40.760788],[-73.985548,40.760512],[-73.985565,40.760477],[-73.985608,40.760382],[-73.985615,40.760368],[-73.985684,40.76021],[-73.98575,40.760052],[-73.985844,40.759813],[-73.985896,40.759674],[-73.985909,40.759638],[-73.985943,40.759541],[-73.986018,40.75932],[-73.986086,40.759098]]]},"properties":{"zonedist":"C6-5"}},{"type":"Feature","geometry":{"type":"Polygon","coordinates":[[[-73.979925,40.755931],[-73.981248,40.754114],[-73.983223,40.754946],[-73.980717,40.758389],[-73.978742,40.757556],[-73.979881,40.755991],[-73.979925,40.755931]]]},"properties":{"zonedist":"C6-4.5"}},{"type":"Feature","geometry":{"type":"Polygon","coordinates":[[[-73.982892,40.751848],[-73.984692,40.749379],[-73.98667,40.75021],[-73.985319,40.752066],[-73.985319,40.752066],[-73.984648,40.752989],[-73.983472,40.752494],[-73.982826,40.752222],[-73.983051,40.751915],[-73.982892,40.751848]]]},"properties":{"zonedist":"M1-9A/R12"}},{"type":"Feature","geometry":{"type":"Polygon","coordinates":[[[-73.982641,40.754069],[-73.983435,40.752979],[-73.984842,40.753572],[-73.984048,40.754663],[-73.982641,40.754069]]]},"properties":{"zonedist":"PARK"}},{"type":"Feature","geometry":{"type":"Polygon","coordinates":[[[-73.983223,40.754946],[-73.981248,40.754114],[-73.981507,40.753748],[-73.984119,40.75485],[-73.984377,40.754494],[-73.985156,40.754823],[-73.985154,40.754826],[-73.984637,40.755536],[-73.983953,40.756474],[-73.983492,40.757108],[-73.982583,40.758355],[-73.981681,40.759593],[-73.981671,40.759607],[-73.980894,40.759279],[-73.981348,40.758655],[-73.980717,40.758389],[-73.983223,40.754946]]]},"properties":{"zonedist":"C6-6"}},{"type":"Feature","geometry":{"type":"Polygon","coordinates":[[[-73.980057,40.75267],[-73.98163,40.750514],[-73.982094,40.750708],[-73.982113,40.750716],[-73.980534,40.752871],[-73.980057,40.75267]]]},"properties":{"zonedist":"C5-2.5"}},{"type":"Feature","geometry":{"type":"Polygon","coordinates":[[[-73.984833,40.75919],[-73.985092,40.758838],[-73.985108,40.758845],[-73.98496,40.759244],[-73.984833,40.75919]]]},"properties":{"zonedist":"PARK"}},{"type":"Feature","geometry":{"type":"Polygon","coordinates":[[[-73.976273,40.760949],[-73.978742,40.757556],[-73.980717,40.758389],[-73.978428,40.761519],[-73.978201,40.76183],[-73.978193,40.761827],[-73.977104,40.761366],[-73.976234,40.761001],[-73.976273,40.760949]]]},"properties":{"zonedist":"C5-2.5"}},{"type":"Feature","geometry":{"type":"Polygon","coordinates":[[[-73.983091,40.76478],[-73.983097,40.764764],[-73.983111,40.764724],[-73.98359,40.764926],[-73.985179,40.762734],[-73.985638,40.762101],[-73.985648,40.762087],[-73.989062,40.757408],[-73.989528,40.757605],[-73.989791,40.757244],[-73.991545,40.75798],[-73.992035,40.757316],[-73.993118,40.757772],[-73.993041,40.757881],[-73.993804,40.758203],[-73.993828,40.758213],[-73.994337,40.758427],[-73.994389,40.758356],[-73.995254,40.758721],[-73.995928,40.759005],[-73.995956,40.758966],[-73.996919,40.759371],[-73.997011,40.759286],[-73.997936,40.758191],[-73.998058,40.758241],[-73.998386,40.758379],[-73.998448,40.758312],[-73.998864,40.757863],[-73.998927,40.757795],[-73.998845,40.75776],[-73.999935,40.756603],[-74.000478,40.756027],[-74.000398,40.755993],[-74.000447,40.755925],[-74.000615,40.755996],[-74.001047,40.755534],[-74.000807,40.755433],[-74.000893,40.755317],[-74.001149,40.755424],[-74.001257,40.755318],[-74.001668,40.754875],[-74.001736,40.754803],[-74.001042,40.754512],[-73.999449,40.756399],[-73.998205,40.755875],[-73.998652,40.75526],[-73.998179,40.755061],[-73.998409,40.754746],[-73.996836,40.754084],[-73.99661,40.754395],[-73.995358,40.75387],[-73.995339,40.753862],[-73.995333,40.753859],[-73.994085,40.75333],[-73.99345,40.753061],[-73.992976,40.752868],[-73.993209,40.75255],[-73.993467,40.752195],[-73.991415,40.751332],[-73.991906,40.750658],[-73.992064,40.750724],[-73.992943,40.749516],[-73.992947,40.74951],[-73.99437,40.750109],[-73.994372,40.750109],[-73.997686,40.751503],[-73.997686,40.751503],[-73.997908,40.751197],[-73.997925,40.751175],[-73.998148,40.750874],[-74.000976,40.752072],[-74.00166,40.751145],[-73.998816,40.749953],[-73.999039,40.749648],[-73.999039,40.749647],[-74.001887,40.750836],[-74.002355,40.751036],[-74.001674,40.751967],[-74.003576,40.752762],[-74.004255,40.751835],[-74.004728,40.752033],[-74.004724,40.752039],[-74.004433,40.752434],[-74.004318,40.752592],[-74.004276,40.75265],[-74.003824,40.753268],[-74.003824,40.753268],[-74.004872,40.753709],[-74.006644,40.754457],[-74.005275,40.756286],[-74.002485,40.755106],[-73.999698,40.758924],[-74.000244,40.759155],[-74.000242,40.759156],[-73.999792,40.759775],[-73.999245,40.759545],[-73.998795,40.760161],[-74.002024,40.761526],[-74.002019,40.761533],[-74.001978,40.761592],[-74.001915,40.761679],[-74.001848,40.761768],[-74.001777,40.761856],[-74.001702,40.761941],[-74.001623,40.762024],[-74.001583,40.762065],[-74.001502,40.762142],[-74.001473,40.762168],[-74.001072,40.762002],[-74.000317,40.762562],[-74.00029,40.762551],[-74.000287,40.76255],[-74.000185,40.762506],[-74.000161,40.762496],[-73.998284,40.761703],[-73.998038,40.761599],[-73.997822,40.761508],[-73.997482,40.761364],[-73.995713,40.760616],[-73.995541,40.760543],[-73.992142,40.759112],[-73.992142,40.759112],[-73.992368,40.758802],[-73.990154,40.757869],[-73.989013,40.759433],[-73.989012,40.759433],[-73.989012,40.759433],[-73.98719,40.761936],[-73.989405,40.76287],[-73.988952,40.763497],[-73.986731,40.762566],[-73.983998,40.766316],[-73.983996,40.766319],[-73.9828,40.765815],[-73.982824,40.765717],[-73.98283,40.76569],[-73.982851,40.765598],[-73.982902,40.765392],[-73.982958,40.765187],[-73.983021,40.764983],[-73.983091,40.76478]]]},"properties":{"zonedist":"C6-4"}},{"type":"Feature","geometry":{"type":"Polygon","coordinates":[[[-73.978428,40.761519],[-73.980717,40.758389],[-73.981348,40.758655],[-73.980894,40.759279],[-73.981671,40.759607],[-73.981224,40.760229],[-73.981222,40.760233],[-73.981027,40.7605],[-73.980983,40.76056],[-73.979848,40.762116],[-73.978428,40.761519]]]},"properties":{"zonedist":"C5-3"}},{"type":"Feature","geometry":{"type":"Polygon","coordinates":[[[-73.983469,40.752498],[-73.983472,40.752494],[-73.984648,40.752989],[-73.985279,40.753254],[-73.985052,40.753566],[-73.983245,40.752804],[-73.983469,40.752498]]]},"properties":{"zonedist":"C6-4.5"}},{"type":"Feature","geometry":{"type":"Polygon","coordinates":[[[-73.989013,40.759433],[-73.990154,40.757869],[-73.992368,40.758802],[-73.992142,40.759112],[-73.992142,40.759112],[-73.991232,40.760362],[-73.989014,40.759433],[-73.989013,40.759433]],[[-73.991442,40.759224],[-73.991482,40.759169],[-73.991546,40.759195],[-73.991684,40.759006],[-73.991074,40.758749],[-73.990895,40.758994],[-73.990974,40.759027],[-73.991052,40.75906],[-73.991203,40.759124],[-73.991289,40.75916],[-73.991365,40.759192],[-73.991442,40.759224]]]},"properties":{"zonedist":"C6-2"}},{"type":"Feature","geometry":{"type":"Polygon","coordinates":[[[-73.983996,40.766319],[-73.986731,40.762566],[-73.988952,40.763497],[-73.989405,40.76287],[-73.98719,40.761936],[-73.989012,40.759433],[-73.989013,40.759433],[-73.991232,40.760362],[-73.992142,40.759112],[-73.995541,40.760543],[-73.995092,40.761172],[-73.996103,40.761595],[-73.996106,40.761596],[-73.995648,40.762225],[-73.996436,40.762556],[-73.996439,40.762557],[-73.995981,40.763185],[-73.995184,40.76285],[-73.994957,40.763161],[-73.995122,40.76323],[-73.994894,40.763543],[-73.995524,40.763807],[-73.995527,40.763808],[-73.993708,40.766305],[-73.993392,40.766172],[-73.993154,40.766498],[-73.993076,40.766465],[-73.99285,40.766774],[-73.992771,40.766741],[-73.992386,40.766578],[-73.992377,40.766574],[-73.991901,40.766374],[-73.99182,40.76634],[-73.992045,40.766031],[-73.991997,40.766011],[-73.992228,40.765694],[-73.991899,40.765555],[-73.992352,40.764932],[-73.99179,40.764692],[-73.990423,40.76657],[-73.990422,40.766569],[-73.988051,40.765572],[-73.986913,40.767135],[-73.988096,40.767635],[-73.987867,40.76795],[-73.988572,40.768247],[-73.987586,40.769595],[-73.986149,40.768986],[-73.98572,40.768804],[-73.985703,40.768798],[-73.986438,40.767788],[-73.985965,40.767598],[-73.985957,40.767595],[-73.986205,40.767251],[-73.984154,40.766385],[-73.984023,40.76633],[-73.983996,40.766319]],[[-73.987434,40.765573],[-73.986492,40.765176],[-73.986639,40.764975],[-73.985762,40.764605],[-73.985304,40.765232],[-73.987121,40.766],[-73.987434,40.765573]],[[-73.992588,40.763299],[-73.992941,40.762815],[-73.992557,40.762653],[-73.992204,40.763137],[-73.992588,40.763299]],[[-73.993077,40.761226],[-73.992748,40.761088],[-73.992565,40.761338],[-73.992581,40.761345],[-73.992401,40.761592],[-73.992713,40.761724],[-73.992894,40.761477],[-73.993077,40.761226]]]},"properties":{"zonedist":"R8"}},{"type":"Feature","geometry":{"type":"Polygon","coordinates":[[[-73.982494,40.760771],[-73.984712,40.75777],[-73.985055,40.756943],[-73.985059,40.756944],[-73.985086,40.75687],[-73.985087,40.75687],[-73.985334,40.756303],[-73.985348,40.756254],[-73.98725,40.757053],[-73.986798,40.757673],[-73.987162,40.757827],[-73.986703,40.758458],[-73.987097,40.758623],[-73.986869,40.75894],[-73.98704,40.759011],[-73.986813,40.759321],[-73.986108,40.759025],[-73.986086,40.759098],[-73.986018,40.75932],[-73.985943,40.759541],[-73.985909,40.759638],[-73.985896,40.759674],[-73.985844,40.759813],[-73.98575,40.760052],[-73.985684,40.76021],[-73.985615,40.760368],[-73.985608,40.760382],[-73.985565,40.760477],[-73.985548,40.760512],[-73.985415,40.760788],[-73.985296,40.761001],[-73.985274,40.76104],[-73.98519,40.761183],[-73.985043,40.761428],[-73.984891,40.76167],[-73.984875,40.761695],[-73.984875,40.761695],[-73.984837,40.761754],[-73.984833,40.76176],[-73.982494,40.760771]],[[-73.98496,40.759244],[-73.985108,40.758845],[-73.985092,40.758838],[-73.984833,40.75919],[-73.98496,40.759244]]]},"properties":{"zonedist":"C6-7T"}},{"type":"Feature","geometry":{"type":"Polygon","coordinates":[[[-73.976105,40.764348],[-73.974465,40.763662],[-73.974228,40.763987],[-73.974126,40.763944],[-73.973461,40.763665],[-73.97303,40.764268],[-73.9725,40.764046],[-73.972421,40.764012],[-73.973096,40.763087],[-73.972608,40.762881],[-73.971476,40.764435],[-73.971471,40.764443],[-73.971436,40.764491],[-73.971016,40.765066],[-73.971014,40.765068],[-73.970944,40.765039],[-73.969983,40.764634],[-73.970443,40.764002],[-73.971577,40.762445],[-73.971089,40.762239],[-73.969956,40.763799],[-73.969955,40.7638],[-73.969558,40.763631],[-73.968805,40.763314],[-73.968726,40.763281],[-73.969862,40.76172],[-73.969454,40.761548],[-73.969457,40.761544],[-73.969981,40.76082],[-73.970392,40.760994],[-73.9713,40.759745],[-73.974274,40.755673],[-73.974039,40.755573],[-73.973872,40.755502],[-73.973793,40.755469],[-73.974035,40.755138],[-73.973007,40.754714],[-73.975283,40.751594],[-73.974732,40.751361],[-73.972461,40.754492],[-73.972461,40.754492],[-73.971282,40.754006],[-73.971117,40.753937],[-73.971123,40.753929],[-73.972037,40.752682],[-73.972042,40.752675],[-73.972256,40.752382],[-73.972265,40.752371],[-73.972723,40.751745],[-73.972763,40.751691],[-73.973152,40.751159],[-73.973181,40.75112],[-73.972187,40.750701],[-73.971714,40.750502],[-73.971714,40.750502],[-73.97222,40.749828],[-73.973666,40.750439],[-73.974152,40.749772],[-73.973706,40.749584],[-73.974138,40.748966],[-73.974524,40.749129],[-73.974965,40.748508],[-73.976299,40.749066],[-73.976313,40.749072],[-73.976087,40.749382],[-73.976165,40.749415],[-73.975262,40.750655],[-73.975794,40.750878],[-73.976696,40.74964],[-73.976707,40.749645],[-73.976775,40.749673],[-73.977638,40.750038],[-73.977665,40.75005],[-73.977718,40.750072],[-73.976813,40.751307],[-73.977343,40.75153],[-73.978235,40.750291],[-73.978314,40.750324],[-73.978537,40.750013],[-73.979562,40.750445],[-73.979672,40.750492],[-73.978551,40.752034],[-73.979031,40.752237],[-73.980156,40.750695],[-73.980245,40.750733],[-73.980695,40.750118],[-73.981119,40.750298],[-73.981235,40.750348],[-73.98163,40.750514],[-73.980057,40.75267],[-73.980534,40.752871],[-73.982113,40.750716],[-73.983957,40.748198],[-73.984562,40.748447],[-73.985047,40.747781],[-73.98553,40.747985],[-73.985675,40.748045],[-73.98545,40.748356],[-73.987186,40.749082],[-73.988018,40.749435],[-73.987938,40.749863],[-73.987936,40.749873],[-73.987856,40.750284],[-73.986904,40.749888],[-73.984922,40.749064],[-73.984692,40.749379],[-73.982892,40.751848],[-73.983051,40.751915],[-73.982826,40.752222],[-73.983472,40.752494],[-73.983469,40.752498],[-73.983245,40.752804],[-73.985052,40.753566],[-73.985279,40.753254],[-73.984648,40.752989],[-73.985319,40.752066],[-73.987312,40.752901],[-73.988778,40.753521],[-73.988788,40.753525],[-73.987664,40.755073],[-73.986756,40.754689],[-73.986643,40.755047],[-73.985836,40.754707],[-73.986067,40.753994],[-73.985832,40.753895],[-73.985156,40.754823],[-73.984377,40.754494],[-73.984119,40.75485],[-73.981507,40.753748],[-73.981248,40.754114],[-73.979925,40.755931],[-73.979881,40.755991],[-73.978742,40.757556],[-73.976273,40.760949],[-73.976234,40.761001],[-73.976229,40.761009],[-73.974861,40.762888],[-73.976827,40.76371],[-73.976831,40.763712],[-73.97825,40.764305],[-73.979521,40.764837],[-73.979679,40.764903],[-73.979152,40.765628],[-73.976148,40.764366],[-73.976105,40.764348]],[[-73.979827,40.753836],[-73.980007,40.75359],[-73.979536,40.753391],[-73.973139,40.762152],[-73.973624,40.762357],[-73.979827,40.753836]],[[-73.975759,40.756299],[-73.9755,40.756188],[-73.97162,40.761511],[-73.972108,40.761717],[-73.97325,40.76015],[-73.975985,40.756395],[-73.975759,40.756299]],[[-73.983435,40.752979],[-73.982641,40.754069],[-73.984048,40.754663],[-73.984842,40.753572],[-73.983435,40.752979]]]},"properties":{"zonedist":"C5-3"}},{"type":"Feature","geometry":{"type":"Polygon","coordinates":[[[-73.991176,40.755339],[-73.991018,40.755272],[-73.990703,40.755139],[-73.990478,40.755448],[-73.990351,40.755395],[-73.990126,40.755704],[-73.989245,40.755333],[-73.98947,40.755024],[-73.988996,40.754824],[-73.989221,40.754515],[-73.989866,40.754787],[-73.990091,40.754478],[-73.990154,40.754505],[-73.990379,40.754196],[-73.990034,40.754051],[-73.990261,40.753739],[-73.99015,40.753693],[-73.990377,40.753381],[-73.990675,40.753506],[-73.990898,40.7532],[-73.991246,40.753346],[-73.991469,40.75304],[-73.991232,40.75294],[-73.991457,40.752632],[-73.992199,40.752944],[-73.991974,40.753253],[-73.991737,40.753153],[-73.991514,40.753459],[-73.991672,40.753526],[-73.991449,40.753832],[-73.991922,40.754032],[-73.99208,40.754098],[-73.991176,40.755339]]]},"properties":{"zonedist":"M1-9A"}}]}